CCSDS_OMM_VERS = 2.0
CREATION_DATE  = 
ORIGINATOR     = 

OBJECT_NAME    = ATLAS CENTAUR R/B
OBJECT_ID      = 1972-065B
CENTER_NAME    = EARTH
REF_FRAME      = TEME
TIME_SYSTEM    = UTC
MEAN_ELEMENT_THEORY = SGP/SGP4

EPOCH          = 2026-03-23T01:42:58.748256
MEAN_MOTION    = 14.77723826
ECCENTRICITY   = .0032944
INCLINATION    = 35.0006
RA_OF_ASC_NODE = 227.3278
ARG_OF_PERICENTER = 123.2785
MEAN_ANOMALY   = 237.1078

EPHEMERIS_TYPE = 0
CLASSIFICATION_TYPE = U
NORAD_CAT_ID   = 6155
ELEMENT_SET_NO = 999
REV_AT_EPOCH   = 84324
BSTAR          = .20021229E-3
MEAN_MOTION_DOT = .1448E-4
MEAN_MOTION_DDOT = 0

CCSDS_OMM_VERS = 2.0
CREATION_DATE  = 
ORIGINATOR     = 

OBJECT_NAME    = SL-8 R/B
OBJECT_ID      = 1975-112B
CENTER_NAME    = EARTH
REF_FRAME      = TEME
TIME_SYSTEM    = UTC
MEAN_ELEMENT_THEORY = SGP/SGP4

EPOCH          = 2026-03-23T04:56:57.673248
MEAN_MOTION    = 14.38211557
ECCENTRICITY   = .00144669
INCLINATION    = 74.0636
RA_OF_ASC_NODE = 354.0500
ARG_OF_PERICENTER = 81.6255
MEAN_ANOMALY   = 278.6539

EPHEMERIS_TYPE = 0
CLASSIFICATION_TYPE = U
NORAD_CAT_ID   = 8459
ELEMENT_SET_NO = 999
REV_AT_EPOCH   = 63381
BSTAR          = .10025232E-3
MEAN_MOTION_DOT = .279E-5
MEAN_MOTION_DDOT = 0

CCSDS_OMM_VERS = 2.0
CREATION_DATE  = 
ORIGINATOR     = 

OBJECT_NAME    = SL-3 R/B
OBJECT_ID      = 1977-057B
CENTER_NAME    = EARTH
REF_FRAME      = TEME
TIME_SYSTEM    = UTC
MEAN_ELEMENT_THEORY = SGP/SGP4

EPOCH          = 2026-03-23T04:25:44.769216
MEAN_MOTION    = 15.45871012
ECCENTRICITY   = .0006458
INCLINATION    = 97.5796
RA_OF_ASC_NODE = 254.7043
ARG_OF_PERICENTER = 227.6159
MEAN_ANOMALY   = 132.4544

EPHEMERIS_TYPE = 0
CLASSIFICATION_TYPE = U
NORAD_CAT_ID   = 10114
ELEMENT_SET_NO = 999
REV_AT_EPOCH   = 67041
BSTAR          = .31990237E-3
MEAN_MOTION_DOT = .15463E-3
MEAN_MOTION_DDOT = 0

CCSDS_OMM_VERS = 2.0
CREATION_DATE  = 
ORIGINATOR     = 

OBJECT_NAME    = SEASAT 1
OBJECT_ID      = 1978-064A
CENTER_NAME    = EARTH
REF_FRAME      = TEME
TIME_SYSTEM    = UTC
MEAN_ELEMENT_THEORY = SGP/SGP4

EPOCH          = 2026-03-23T04:36:42.878016
MEAN_MOTION    = 14.46170959
ECCENTRICITY   = .00025421
INCLINATION    = 108.0083
RA_OF_ASC_NODE = 153.8318
ARG_OF_PERICENTER = 279.4156
MEAN_ANOMALY   = 80.6702

EPHEMERIS_TYPE = 0
CLASSIFICATION_TYPE = U
NORAD_CAT_ID   = 10967
ELEMENT_SET_NO = 999
REV_AT_EPOCH   = 50846
BSTAR          = .11340446E-3
MEAN_MOTION_DOT = .268E-5
MEAN_MOTION_DDOT = 0

CCSDS_OMM_VERS = 2.0
CREATION_DATE  = 
ORIGINATOR     = 

OBJECT_NAME    = SL-14 R/B
OBJECT_ID      = 1979-011B
CENTER_NAME    = EARTH
REF_FRAME      = TEME
TIME_SYSTEM    = UTC
MEAN_ELEMENT_THEORY = SGP/SGP4

EPOCH          = 2026-03-23T01:28:29.831232
MEAN_MOTION    = 14.91924521
ECCENTRICITY   = .00165022
INCLINATION    = 82.5205
RA_OF_ASC_NODE = 83.8781
ARG_OF_PERICENTER = 18.5862
MEAN_ANOMALY   = 341.5956

EPHEMERIS_TYPE = 0
CLASSIFICATION_TYPE = U
NORAD_CAT_ID   = 11267
ELEMENT_SET_NO = 999
REV_AT_EPOCH   = 53077
BSTAR          = .64668003E-4
MEAN_MOTION_DOT = .681E-5
MEAN_MOTION_DDOT = 0

CCSDS_OMM_VERS = 2.0
CREATION_DATE  = 
ORIGINATOR     = 

OBJECT_NAME    = SL-8 R/B
OBJECT_ID      = 1979-089B
CENTER_NAME    = EARTH
REF_FRAME      = TEME
TIME_SYSTEM    = UTC
MEAN_ELEMENT_THEORY = SGP/SGP4

EPOCH          = 2026-03-23T04:49:43.228128
MEAN_MOTION    = 14.42357904
ECCENTRICITY   = .00169305
INCLINATION    = 74.0676
RA_OF_ASC_NODE = 66.0293
ARG_OF_PERICENTER = 237.1198
MEAN_ANOMALY   = 122.8329

EPHEMERIS_TYPE = 0
CLASSIFICATION_TYPE = U
NORAD_CAT_ID   = 11574
ELEMENT_SET_NO = 999
REV_AT_EPOCH   = 43805
BSTAR          = .61613308E-4
MEAN_MOTION_DOT = .177E-5
MEAN_MOTION_DDOT = 0

CCSDS_OMM_VERS = 2.0
CREATION_DATE  = 
ORIGINATOR     = 

OBJECT_NAME    = SL-14 R/B
OBJECT_ID      = 1980-005B
CENTER_NAME    = EARTH
REF_FRAME      = TEME
TIME_SYSTEM    = UTC
MEAN_ELEMENT_THEORY = SGP/SGP4

EPOCH          = 2026-03-23T00:23:17.424960
MEAN_MOTION    = 14.90945002
ECCENTRICITY   = .00170714
INCLINATION    = 82.5119
RA_OF_ASC_NODE = 294.5931
ARG_OF_PERICENTER = 116.5828
MEAN_ANOMALY   = 243.7143

EPHEMERIS_TYPE = 0
CLASSIFICATION_TYPE = U
NORAD_CAT_ID   = 11672
ELEMENT_SET_NO = 999
REV_AT_EPOCH   = 47847
BSTAR          = .58315687E-4
MEAN_MOTION_DOT = .603E-5
MEAN_MOTION_DDOT = 0

CCSDS_OMM_VERS = 2.0
CREATION_DATE  = 
ORIGINATOR     = 

OBJECT_NAME    = SL-8 R/B
OBJECT_ID      = 1981-003B
CENTER_NAME    = EARTH
REF_FRAME      = TEME
TIME_SYSTEM    = UTC
MEAN_ELEMENT_THEORY = SGP/SGP4

EPOCH          = 2026-03-22T23:29:26.001888
MEAN_MOTION    = 15.11536823
ECCENTRICITY   = .02612975
INCLINATION    = 82.9351
RA_OF_ASC_NODE = 277.7302
ARG_OF_PERICENTER = 132.3348
MEAN_ANOMALY   = 230.0346

EPHEMERIS_TYPE = 0
CLASSIFICATION_TYPE = U
NORAD_CAT_ID   = 12139
ELEMENT_SET_NO = 999
REV_AT_EPOCH   = 31668
BSTAR          = .59800415E-3
MEAN_MOTION_DOT = .23695E-3
MEAN_MOTION_DDOT = 0

CCSDS_OMM_VERS = 2.0
CREATION_DATE  = 
ORIGINATOR     = 

OBJECT_NAME    = SL-3 R/B
OBJECT_ID      = 1981-046B
CENTER_NAME    = EARTH
REF_FRAME      = TEME
TIME_SYSTEM    = UTC
MEAN_ELEMENT_THEORY = SGP/SGP4

EPOCH          = 2026-03-23T05:10:23.996064
MEAN_MOTION    = 15.42320131
ECCENTRICITY   = .00185038
INCLINATION    = 81.2285
RA_OF_ASC_NODE = 273.4952
ARG_OF_PERICENTER = 334.7957
MEAN_ANOMALY   = 25.2381

EPHEMERIS_TYPE = 0
CLASSIFICATION_TYPE = U
NORAD_CAT_ID   = 12465
ELEMENT_SET_NO = 999
REV_AT_EPOCH   = 44051
BSTAR          = .31644725E-3
MEAN_MOTION_DOT = .13751E-3
MEAN_MOTION_DDOT = 0

CCSDS_OMM_VERS = 2.0
CREATION_DATE  = 
ORIGINATOR     = 

OBJECT_NAME    = SL-3 R/B
OBJECT_ID      = 1981-103B
CENTER_NAME    = EARTH
REF_FRAME      = TEME
TIME_SYSTEM    = UTC
MEAN_ELEMENT_THEORY = SGP/SGP4

EPOCH          = 2026-03-23T06:06:28.778400
MEAN_MOTION    = 15.21536484
ECCENTRICITY   = .00125648
INCLINATION    = 81.1609
RA_OF_ASC_NODE = 197.5198
ARG_OF_PERICENTER = 237.6477
MEAN_ANOMALY   = 122.3539

EPHEMERIS_TYPE = 0
CLASSIFICATION_TYPE = U
NORAD_CAT_ID   = 12904
ELEMENT_SET_NO = 999
REV_AT_EPOCH   = 97529
BSTAR          = .31274528E-3
MEAN_MOTION_DOT = .7083E-4
MEAN_MOTION_DDOT = 0

CCSDS_OMM_VERS = 2.0
CREATION_DATE  = 
ORIGINATOR     = 

OBJECT_NAME    = SL-3 R/B
OBJECT_ID      = 1982-013B
CENTER_NAME    = EARTH
REF_FRAME      = TEME
TIME_SYSTEM    = UTC
MEAN_ELEMENT_THEORY = SGP/SGP4

EPOCH          = 2026-03-23T04:35:30.162048
MEAN_MOTION    = 15.22137972
ECCENTRICITY   = .00233905
INCLINATION    = 81.1741
RA_OF_ASC_NODE = 144.9462
ARG_OF_PERICENTER = 132.7229
MEAN_ANOMALY   = 227.5977

EPHEMERIS_TYPE = 0
CLASSIFICATION_TYPE = U
NORAD_CAT_ID   = 13068
ELEMENT_SET_NO = 999
REV_AT_EPOCH   = 40640
BSTAR          = .23733446E-3
MEAN_MOTION_DOT = .5506E-4
MEAN_MOTION_DDOT = 0

CCSDS_OMM_VERS = 2.0
CREATION_DATE  = 
ORIGINATOR     = 

OBJECT_NAME    = SL-3 R/B
OBJECT_ID      = 1982-039B
CENTER_NAME    = EARTH
REF_FRAME      = TEME
TIME_SYSTEM    = UTC
MEAN_ELEMENT_THEORY = SGP/SGP4

EPOCH          = 2026-03-23T05:45:48.693888
MEAN_MOTION    = 15.10155136
ECCENTRICITY   = .00290088
INCLINATION    = 81.1577
RA_OF_ASC_NODE = 200.3382
ARG_OF_PERICENTER = 279.8917
MEAN_ANOMALY   = 79.9034

EPHEMERIS_TYPE = 0
CLASSIFICATION_TYPE = U
NORAD_CAT_ID   = 13154
ELEMENT_SET_NO = 999
REV_AT_EPOCH   = 38368
BSTAR          = .2072048E-3
MEAN_MOTION_DOT = .3436E-4
MEAN_MOTION_DDOT = 0

